ONEWEB-0228             
1 48780U 21045P   24183.61017218  .00000110  00000+0  26008-3 0  9993
2 48780  87.9023  41.5788 0001931  81.0034 279.1315 13.15069085150249
